{
  "type": "FeatureCollection",
  "features": [
    {
      "type": "Feature",
      "properties": {
        "norad_id": 66594,
        "name": "STARLINK-36032",
        "group": "last-30-days",
        "lat": 40.93961058439802,
        "lon": 4.24138964221673,
        "alt_km": 325.0725192017271,
        "timestamp": "2025-12-02T15:49:05.950062+00:00",
        "meta_object_name": "STARLINK-36032",
        "meta_object_id": "2025-270G",
        "meta_epoch": "2025-12-01T16:00:03.999744",
        "meta_mean_motion": 15.83355975,
        "meta_eccentricity": 0.00016261,
        "meta_inclination": 42.9983,
        "meta_ra_of_asc_node": 258.9063,
        "meta_arg_of_pericenter": 256.8186,
        "meta_mean_anomaly": 311.4207,
        "meta_ephemeris_type": 0,
        "meta_classification_type": "U",
        "meta_norad_cat_id": 66594,
        "meta_element_set_no": 999,
        "meta_rev_at_epoch": 236,
        "meta_bstar": -0.0077644659,
        "meta_mean_motion_dot": -0.01533415,
        "meta_mean_motion_ddot": 0,
        "tle_line1": "1 66594U 25270G   25335.66671296 -.01533415  00000+0 -77645-2 0  9991",
        "tle_line2": "2 66594  42.9983 258.9063 0001626 256.8186 311.4207 15.83355975  2361"
      },
      "geometry": {
        "type": "Point",
        "coordinates": [
          4.24138964221673,
          40.93961058439802
        ]
      }
    },
    {
      "type": "Feature",
      "properties": {
        "norad_id": 66595,
        "name": "STARLINK-35711",
        "group": "last-30-days",
        "lat": 40.36425320221541,
        "lon": 7.004338306017437,
        "alt_km": 325.20323728436324,
        "timestamp": "2025-12-02T15:49:05.950074+00:00",
        "meta_object_name": "STARLINK-35711",
        "meta_object_id": "2025-270H",
        "meta_epoch": "2025-12-01T16:00:03.999744",
        "meta_mean_motion": 15.83363114,
        "meta_eccentricity": 0.00016873,
        "meta_inclination": 42.9983,
        "meta_ra_of_asc_node": 258.9006,
        "meta_arg_of_pericenter": 255.8443,
        "meta_mean_anomaly": 314.5867,
        "meta_ephemeris_type": 0,
        "meta_classification_type": "U",
        "meta_norad_cat_id": 66595,
        "meta_element_set_no": 999,
        "meta_rev_at_epoch": 273,
        "meta_bstar": -0.0078181781,
        "meta_mean_motion_dot": -0.01543242,
        "meta_mean_motion_ddot": 0,
        "tle_line1": "1 66595U 25270H   25335.66671296 -.01543242  00000+0 -78182-2 0  9998",
        "tle_line2": "2 66595  42.9983 258.9006 0001687 255.8443 314.5867 15.83363114  2732"
      },
      "geometry": {
        "type": "Point",
        "coordinates": [
          7.004338306017437,
          40.36425320221541
        ]
      }
    },
    {
      "type": "Feature",
      "properties": {
        "norad_id": 66596,
        "name": "STARLINK-35811",
        "group": "last-30-days",
        "lat": 39.74585871045981,
        "lon": 9.629627213168428,
        "alt_km": 325.1633088052804,
        "timestamp": "2025-12-02T15:49:05.950087+00:00",
        "meta_object_name": "STARLINK-35811",
        "meta_object_id": "2025-270J",
        "meta_epoch": "2025-12-01T16:00:03.999744",
        "meta_mean_motion": 15.83377327,
        "meta_eccentricity": 0.0001571,
        "meta_inclination": 42.9981,
        "meta_ra_of_asc_node": 258.8952,
        "meta_arg_of_pericenter": 252.3015,
        "meta_mean_anomaly": 320.2324,
        "meta_ephemeris_type": 0,
        "meta_classification_type": "U",
        "meta_norad_cat_id": 66596,
        "meta_element_set_no": 999,
        "meta_rev_at_epoch": 273,
        "meta_bstar": -0.0078800429,
        "meta_mean_motion_dot": -0.01554787,
        "meta_mean_motion_ddot": 0,
        "tle_line1": "1 66596U 25270J   25335.66671296 -.01554787  00000+0 -78800-2 0  9992",
        "tle_line2": "2 66596  42.9981 258.8952 0001571 252.3015 320.2324 15.83377327  2732"
      },
      "geometry": {
        "type": "Point",
        "coordinates": [
          9.629627213168428,
          39.74585871045981
        ]
      }
    },
    {
      "type": "Feature",
      "properties": {
        "norad_id": 66597,
        "name": "STARLINK-35820",
        "group": "last-30-days",
        "lat": 39.10974370742988,
        "lon": 12.061129059896928,
        "alt_km": 325.31091640334034,
        "timestamp": "2025-12-02T15:49:05.950099+00:00",
        "meta_object_name": "STARLINK-35820",
        "meta_object_id": "2025-270K",
        "meta_epoch": "2025-12-01T16:00:03.999744",
        "meta_mean_motion": 15.83398272,
        "meta_eccentricity": 0.00016387,
        "meta_inclination": 42.9985,
        "meta_ra_of_asc_node": 258.8905,
        "meta_arg_of_pericenter": 256.1171,
        "meta_mean_anomaly": 318.3362,
        "meta_ephemeris_type": 0,
        "meta_classification_type": "U",
        "meta_norad_cat_id": 66597,
        "meta_element_set_no": 999,
        "meta_rev_at_epoch": 273,
        "meta_bstar": -0.0078880289,
        "meta_mean_motion_dot": -0.01557595,
        "meta_mean_motion_ddot": 0,
        "tle_line1": "1 66597U 25270K   25335.66671296 -.01557595  00000+0 -78880-2 0  9991",
        "tle_line2": "2 66597  42.9985 258.8905 0001638 256.1171 318.3362 15.83398272  2736"
      },
      "geometry": {
        "type": "Point",
        "coordinates": [
          12.061129059896928,
          39.10974370742988
        ]
      }
    },
    {
      "type": "Feature",
      "properties": {
        "norad_id": 66598,
        "name": "STARLINK-35981",
        "group": "last-30-days",
        "lat": 38.37074415729354,
        "lon": 14.620899665932,
        "alt_km": 325.3539300069033,
        "timestamp": "2025-12-02T15:49:05.950109+00:00",
        "meta_object_name": "STARLINK-35981",
        "meta_object_id": "2025-270L",
        "meta_epoch": "2025-12-01T16:00:03.999744",
        "meta_mean_motion": 15.83410258,
        "meta_eccentricity": 0.00016323,
        "meta_inclination": 42.9982,
        "meta_ra_of_asc_node": 258.8851,
        "meta_arg_of_pericenter": 253.0536,
        "meta_mean_anomaly": 323.5301,
        "meta_ephemeris_type": 0,
        "meta_classification_type": "U",
        "meta_norad_cat_id": 66598,
        "meta_element_set_no": 999,
        "meta_rev_at_epoch": 246,
        "meta_bstar": -0.0079403489,
        "meta_mean_motion_dot": -0.01567427,
        "meta_mean_motion_ddot": 0,
        "tle_line1": "1 66598U 25270L   25335.66671296 -.01567427  00000+0 -79403-2 0  9999",
        "tle_line2": "2 66598  42.9982 258.8851 0001632 253.0536 323.5301 15.83410258  2469"
      },
      "geometry": {
        "type": "Point",
        "coordinates": [
          14.620899665932,
          38.37074415729354
        ]
      }
    },
    {
      "type": "Feature",
      "properties": {
        "norad_id": 66599,
        "name": "STARLINK-35930",
        "group": "last-30-days",
        "lat": 37.65567010865063,
        "lon": 16.89005866720719,
        "alt_km": 325.54286280767246,
        "timestamp": "2025-12-02T15:49:05.950120+00:00",
        "meta_object_name": "STARLINK-35930",
        "meta_object_id": "2025-270M",
        "meta_epoch": "2025-12-01T16:00:03.999744",
        "meta_mean_motion": 15.83437481,
        "meta_eccentricity": 0.00016033,
        "meta_inclination": 42.9985,
        "meta_ra_of_asc_node": 258.8805,
        "meta_arg_of_pericenter": 261.8481,
        "meta_mean_anomaly": 316.5723,
        "meta_ephemeris_type": 0,
        "meta_classification_type": "U",
        "meta_norad_cat_id": 66599,
        "meta_element_set_no": 999,
        "meta_rev_at_epoch": 262,
        "meta_bstar": -0.0079468079,
        "meta_mean_motion_dot": -0.01570317,
        "meta_mean_motion_ddot": 0,
        "tle_line1": "1 66599U 25270M   25335.66671296 -.01570317  00000+0 -79468-2 0  9993",
        "tle_line2": "2 66599  42.9985 258.8805 0001603 261.8481 316.5723 15.83437481  2621"
      },
      "geometry": {
        "type": "Point",
        "coordinates": [
          16.89005866720719,
          37.65567010865063
        ]
      }
    },
    {
      "type": "Feature",
      "properties": {
        "norad_id": 66600,
        "name": "STARLINK-35980",
        "group": "last-30-days",
        "lat": 36.83153334829975,
        "lon": 19.300138783174926,
        "alt_km": 325.5923989015482,
        "timestamp": "2025-12-02T15:49:05.950130+00:00",
        "meta_object_name": "STARLINK-35980",
        "meta_object_id": "2025-270N",
        "meta_epoch": "2025-12-01T16:00:03.999744",
        "meta_mean_motion": 15.83448962,
        "meta_eccentricity": 0.00016198,
        "meta_inclination": 42.9984,
        "meta_ra_of_asc_node": 258.8753,
        "meta_arg_of_pericenter": 258.6864,
        "meta_mean_anomaly": 321.8063,
        "meta_ephemeris_type": 0,
        "meta_classification_type": "U",
        "meta_norad_cat_id": 66600,
        "meta_element_set_no": 999,
        "meta_rev_at_epoch": 252,
        "meta_bstar": -0.0079722654,
        "meta_mean_motion_dot": -0.01575492,
        "meta_mean_motion_ddot": 0,
        "tle_line1": "1 66600U 25270N   25335.66671296 -.01575492  00000+0 -79723-2 0  9999",
        "tle_line2": "2 66600  42.9984 258.8753 0001619 258.6864 321.8063 15.83448962  2522"
      },
      "geometry": {
        "type": "Point",
        "coordinates": [
          19.300138783174926,
          36.83153334829975
        ]
      }
    }
  ]
}